JASON-3                 
1 41240U 16002A   21323.80670539 -.00000045  00000-0  68176-4 0  9991
2 41240  66.0431   4.3439 0007987 268.9209  91.0891 12.80929013273064
